{"type": "FeatureCollection", "features": [ {"type": "Feature", "properties": {"norad_id": 66875, "name": "STARLINK-36053", "group": "last-30-days", "lat": -8.059480123046187, "lon": 116.05791442305991, "alt_km": 291.7628530087195, "timestamp": "2025-12-12T07:43:19.260264+00:00", "meta": {"OBJECT_NAME": "STARLINK-36053", "OBJECT_ID": "2025-281AD", "EPOCH": "2025-12-10T18:00:02.000160", "MEAN_MOTION": 15.97277493, "ECCENTRICITY": 0.0001692, "INCLINATION": 43.0017, "RA_OF_ASC_NODE": 134.6244, "ARG_OF_PERICENTER": 274.4156, "MEAN_ANOMALY": 35.2421, "EPHEMERIS_TYPE": 0, "CLASSIFICATION_TYPE": "U", "NORAD_CAT_ID": 66875, "ELEMENT_SET_NO": 999, "REV_AT_EPOCH": 242, "BSTAR": -0.0027453, "MEAN_MOTION_DOT": -0.01252507, "MEAN_MOTION_DDOT": 0.0004807}, "tle": {"line1": "1 66875U 25281AD  25344.75002315 -.01252507  48070-3 -27453-2 0  9990", "line2": "2 66875  43.0017 134.6244 0001692 274.4156  35.2421 15.97277493  2429"}}, "geometry": {"type": "Point", "coordinates": [116.05791442305991, -8.059480123046187]}}, {"type": "Feature", "properties": {"norad_id": 66876, "name": "STARLINK-35702", "group": "last-30-days", "lat": -11.313262413707612, "lon": 112.41414342832647, "alt_km": 292.253688795844, "timestamp": "2025-12-12T07:43:19.260275+00:00", "meta": {"OBJECT_NAME": "STARLINK-35702", "OBJECT_ID": "2025-281AE", "EPOCH": "2025-12-10T18:00:02.000160", "MEAN_MOTION": 15.97131878, "ECCENTRICITY": 0.0001742, "INCLINATION": 43.002, "RA_OF_ASC_NODE": 134.6356, "ARG_OF_PERICENTER": 276.3063, "MEAN_ANOMALY": 29.2605, "EPHEMERIS_TYPE": 0, "CLASSIFICATION_TYPE": "U", "NORAD_CAT_ID": 66876, "ELEMENT_SET_NO": 999, "REV_AT_EPOCH": 247, "BSTAR": -0.0027497, "MEAN_MOTION_DOT": -0.01244535, "MEAN_MOTION_DDOT": 0.00047441}, "tle": {"line1": "1 66876U 25281AE  25344.75002315 -.01244535  47441-3 -27497-2 0  9992", "line2": "2 66876  43.0020 134.6356 0001742 276.3063  29.2605 15.97131878  2470"}}, "geometry": {"type": "Point", "coordinates": [112.41414342832647, -11.313262413707612]}}, {"type": "Feature", "properties": {"norad_id": 66877, "name": "ZQ-3 R/B", "group": "last-30-days", "lat": -51.5105769305933, "lon": 4.316193570749532, "alt_km": 493.1479770182941, "timestamp": "2025-12-12T07:43:19.260285+00:00", "meta": {"OBJECT_NAME": "ZQ-3 R/B", "OBJECT_ID": "2025-282A", "EPOCH": "2025-12-11T15:34:54.456096", "MEAN_MOTION": 14.56097159, "ECCENTRICITY": 0.07931712, "INCLINATION": 56.9524, "RA_OF_ASC_NODE": 61.8427, "ARG_OF_PERICENTER": 218.0596, "MEAN_ANOMALY": 136.1784, "EPHEMERIS_TYPE": 0, "CLASSIFICATION_TYPE": "U", "NORAD_CAT_ID": 66877, "ELEMENT_SET_NO": 999, "REV_AT_EPOCH": 123, "BSTAR": 0.0002423616, "MEAN_MOTION_DOT": 0.01188538, "MEAN_MOTION_DDOT": 7.424357e-06}, "tle": {"line1": "1 66877U 25282A   25345.64924139  .01188538  74244-5  24236-3 0  9990", "line2": "2 66877  56.9524  61.8427 0793171 218.0596 136.1784 14.56097159  1237"}}, "geometry": {"type": "Point", "coordinates": [4.316193570749532, -51.5105769305933]}}, {"type": "Feature", "properties": {"norad_id": 66906, "name": "1998-067XS", "group": "last-30-days", "lat": -44.67080127594471, "lon": 16.050080355254295, "alt_km": 417.77666563393086, "timestamp": "2025-12-12T07:43:19.260295+00:00", "meta": {"OBJECT_NAME": "1998-067XS", "OBJECT_ID": "1998-067XS", "EPOCH": "2025-12-11T19:50:50.396352", "MEAN_MOTION": 15.50491702, "ECCENTRICITY": 0.00036759, "INCLINATION": 51.6297, "RA_OF_ASC_NODE": 146.9447, "ARG_OF_PERICENTER": 198.3211, "MEAN_ANOMALY": 161.7647, "EPHEMERIS_TYPE": 0, "CLASSIFICATION_TYPE": "U", "NORAD_CAT_ID": 66906, "ELEMENT_SET_NO": 999, "REV_AT_EPOCH": 147, "BSTAR": 0.00060264305, "MEAN_MOTION_DOT": 0.00034698, "MEAN_MOTION_DDOT": 0}, "tle": {"line1": "1 66906U 98067XS  25345.82697218  .00034698  00000+0  60264-3 0  9999", "line2": "2 66906  51.6297 146.9447 0003675 198.3211 161.7647 15.50491702  1478"}}, "geometry": {"type": "Point", "coordinates": [16.050080355254295, -44.67080127594471]}}, {"type": "Feature", "properties": {"norad_id": 66907, "name": "1998-067XT", "group": "last-30-days", "lat": -49.88482249245631, "lon": 34.57017864929254, "alt_km": 414.95157083415324, "timestamp": "2025-12-12T07:43:19.260308+00:00", "meta": {"OBJECT_NAME": "1998-067XT", "OBJECT_ID": "1998-067XT", "EPOCH": "2025-12-09T12:07:37.114752", "MEAN_MOTION": 15.50864429, "ECCENTRICITY": 0.00048036, "INCLINATION": 51.6307, "RA_OF_ASC_NODE": 158.4423, "ARG_OF_PERICENTER": 208.5081, "MEAN_ANOMALY": 151.5646, "EPHEMERIS_TYPE": 0, "CLASSIFICATION_TYPE": "U", "NORAD_CAT_ID": 66907, "ELEMENT_SET_NO": 999, "REV_AT_EPOCH": 111, "BSTAR": 0.0012921241, "MEAN_MOTION_DOT": 0.00076342, "MEAN_MOTION_DDOT": 0}, "tle": {"line1": "1 66907U 98067XT  25343.50529068  .00076342  00000+0  12921-2 0  9998", "line2": "2 66907  51.6307 158.4423 0004803 208.5081 151.5646 15.50864429  1113"}}, "geometry": {"type": "Point", "coordinates": [34.57017864929254, -49.88482249245631]}}, {"type": "Feature", "properties": {"norad_id": 66908, "name": "1998-067XU", "group": "last-30-days", "lat": -50.3841339147414, "lon": 37.63310498970584, "alt_km": 414.60961662741283, "timestamp": "2025-12-12T07:43:19.260319+00:00", "meta": {"OBJECT_NAME": "1998-067XU", "OBJECT_ID": "1998-067XU", "EPOCH": "2025-12-11T19:47:12.664032", "MEAN_MOTION": 15.51346926, "ECCENTRICITY": 0.00046963, "INCLINATION": 51.6299, "RA_OF_ASC_NODE": 146.928, "ARG_OF_PERICENTER": 220.0254, "MEAN_ANOMALY": 140.039, "EPHEMERIS_TYPE": 0, "CLASSIFICATION_TYPE": "U", "NORAD_CAT_ID": 66908, "ELEMENT_SET_NO": 999, "REV_AT_EPOCH": 147, "BSTAR": 0.0013269788, "MEAN_MOTION_DOT": 0.00079814, "MEAN_MOTION_DDOT": 0}, "tle": {"line1": "1 66908U 98067XU  25345.82445213  .00079814  00000+0  13270-2 0  9990", "line2": "2 66908  51.6299 146.9280 0004696 220.0254 140.0390 15.51346926  1474"}}, "geometry": {"type": "Point", "coordinates": [37.63310498970584, -50.3841339147414]}}, {"type": "Feature", "properties": {"norad_id": 66909, "name": "SILVERSAT", "group": "last-30-days", "lat": -50.77825982775893, "lon": 40.552095464546234, "alt_km": 414.3829283894993, "timestamp": "2025-12-12T07:43:19.260331+00:00", "meta": {"OBJECT_NAME": "SILVERSAT", "OBJECT_ID": "1998-067XV", "EPOCH": "2025-12-11T19:46:46.158240", "MEAN_MOTION": 15.51450033, "ECCENTRICITY": 0.00045562, "INCLINATION": 51.63, "RA_OF_ASC_NODE": 146.926, "ARG_OF_PERICENTER": 222.0234, "MEAN_ANOMALY": 138.0406, "EPHEMERIS_TYPE": 0, "CLASSIFICATION_TYPE": "U", "NORAD_CAT_ID": 66909, "ELEMENT_SET_NO": 999, "REV_AT_EPOCH": 147, "BSTAR": 0.0013718352, "MEAN_MOTION_DOT": 0.00082864, "MEAN_MOTION_DDOT": 0}, "tle": {"line1": "1 66909U 98067XV  25345.82414535  .00082864  00000+0  13718-2 0  9990", "line2": "2 66909  51.6300 146.9260 0004556 222.0234 138.0406 15.51450033  1471"}}, "geometry": {"type": "Point", "coordinates": [40.552095464546234, -50.77825982775893]}}, {"type": "Feature", "properties": {"norad_id": 66910, "name": "1998-067XW", "group": "last-30-days", "lat": -51.60618641673685, "lon": 53.47415928773958, "alt_km": 414.900446762249, "timestamp": "2025-12-12T07:43:19.260361+00:00", "meta": {"OBJECT_NAME": "1998-067XW", "OBJECT_ID": "1998-067XW", "EPOCH": "2025-12-11T19:44:44.282400", "MEAN_MOTION": 15.51588385, "ECCENTRICITY": 0.0005376, "INCLINATION": 51.6301, "RA_OF_ASC_NODE": 146.917, "ARG_OF_PERICENTER": 203.4285, "MEAN_ANOMALY": 156.646, "EPHEMERIS_TYPE": 0, "CLASSIFICATION_TYPE": "U", "NORAD_CAT_ID": 66910, "ELEMENT_SET_NO": 999, "REV_AT_EPOCH": 147, "BSTAR": 0.0011426696, "MEAN_MOTION_DOT": 0.00069176, "MEAN_MOTION_DDOT": 0}, "tle": {"line1": "1 66910U 98067XW  25345.82273475  .00069176  00000+0  11427-2 0  9994", "line2": "2 66910  51.6301 146.9170 0005376 203.4285 156.6460 15.51588385  1472"}}, "geometry": {"type": "Point", "coordinates": [53.47415928773958, -51.60618641673685]}}, {"type": "Feature", "properties": {"norad_id": 66911, "name": "1998-067XX", "group": "last-30-days", "lat": -51.509220505938984, "lon": 59.28914567366928, "alt_km": 414.3908223953558, "timestamp": "2025-12-12T07:43:19.260375+00:00", "meta": {"OBJECT_NAME": "1998-067XX", "OBJECT_ID": "1998-067XX", "EPOCH": "2025-12-11T19:43:54.579072", "MEAN_MOTION": 15.51811503, "ECCENTRICITY": 0.00051158, "INCLINATION": 51.6297, "RA_OF_ASC_NODE": 146.9125, "ARG_OF_PERICENTER": 205.0916, "MEAN_ANOMALY": 154.9826, "EPHEMERIS_TYPE": 0, "CLASSIFICATION_TYPE": "U", "NORAD_CAT_ID": 66911, "ELEMENT_SET_NO": 999, "REV_AT_EPOCH": 146, "BSTAR": 0.0013559752, "MEAN_MOTION_DOT": 0.0008298, "MEAN_MOTION_DDOT": 0}, "tle": {"line1": "1 66911U 98067XX  25345.82215948  .00082980  00000+0  13560-2 0  9994", "line2": "2 66911  51.6297 146.9125 0005115 205.0916 154.9826 15.51811503  1464"}}, "geometry": {"type": "Point", "coordinates": [59.28914567366928, -51.509220505938984]}}, {"type": "Feature", "properties": {"norad_id": 66912, "name": "1998-067XY", "group": "last-30-days", "lat": -48.46789778553481, "lon": 27.91836474972136, "alt_km": 415.48510034074206, "timestamp": "2025-12-12T07:43:19.260386+00:00", "meta": {"OBJECT_NAME": "1998-067XY", "OBJECT_ID": "1998-067XY", "EPOCH": "2025-12-11T19:48:45.131904", "MEAN_MOTION": 15.51001955, "ECCENTRICITY": 0.00047052, "INCLINATION": 51.6304, "RA_OF_ASC_NODE": 146.936, "ARG_OF_PERICENTER": 217.5082, "MEAN_ANOMALY": 142.5579, "EPHEMERIS_TYPE": 0, "CLASSIFICATION_TYPE": "U", "NORAD_CAT_ID": 66912, "ELEMENT_SET_NO": 999, "REV_AT_EPOCH": 146, "BSTAR": 0.00099420433, "MEAN_MOTION_DOT": 0.0005879, "MEAN_MOTION_DDOT": 0}, "tle": {"line1": "1 66912U 98067XY  25345.82552236  .00058790  00000+0  99420-3 0  9991", "line2": "2 66912  51.6304 146.9360 0004705 217.5082 142.5579 15.51001955  1461"}}, "geometry": {"type": "Point", "coordinates": [27.91836474972136, -48.46789778553481]}}]}